0 PEGASUS DEB
1 39320U 94029AFF 13288.29819907  .00000987  00000-0  27345-3 0    10
2 39320 081.7609 121.7211 0327673 317.5251 040.0727 14.18849906560200
0 PEGASUS DEB
1 39320U 94029AFF 13291.25995935  .00000987  00000-0  27378-3 0    23
2 39320 081.7611 118.9620 0327572 308.8830 048.3550 14.18855717560627
0 PEGASUS DEB
1 39320U 94029AFF 13293.79860464  .00001015  00000-0  28089-3 0    36
2 39320 081.7602 116.5937 0328449 301.3846 055.5869 14.18861831560987
